{"type": "FeatureCollection", "features": [ {"type": "Feature", "properties": {"norad_id": 42987, "name": "SKYSAT-C11", "group": "resource", "lat": 25.031059316218983, "lon": 126.51986449049724, "alt_km": 422.6747041282024, "timestamp": "2025-12-18T08:58:43.049171+00:00", "meta": {"OBJECT_NAME": "SKYSAT-C11", "OBJECT_ID": "2017-068A", "EPOCH": "2025-12-17T15:48:02.558880", "MEAN_MOTION": 15.47652121, "ECCENTRICITY": 0.00011602, "INCLINATION": 97.4137, "RA_OF_ASC_NODE": 129.2724, "ARG_OF_PERICENTER": 101.1537, "MEAN_ANOMALY": 258.9843, "EPHEMERIS_TYPE": 0, "CLASSIFICATION_TYPE": "U", "NORAD_CAT_ID": 42987, "ELEMENT_SET_NO": 999, "REV_AT_EPOCH": 45507, "BSTAR": 0.0003559198, "MEAN_MOTION_DOT": 0.00018302, "MEAN_MOTION_DDOT": 0}, "tle": {"line1": "1 42987U 17068A   25351.65836295  .00018302  00000+0  35592-3 0  9992", "line2": "2 42987  97.4137 129.2724 0001160 101.1537 258.9843 15.47652121455070"}}, "geometry": {"type": "Point", "coordinates": [126.51986449049724, 25.031059316218983]}}, {"type": "Feature", "properties": {"norad_id": 42988, "name": "SKYSAT-C10", "group": "resource", "lat": 26.509328217803432, "lon": -53.029450967603616, "alt_km": 466.9057902048089, "timestamp": "2025-12-18T08:58:43.049181+00:00", "meta": {"OBJECT_NAME": "SKYSAT-C10", "OBJECT_ID": "2017-068B", "EPOCH": "2025-12-17T19:46:24.989376", "MEAN_MOTION": 15.32169613, "ECCENTRICITY": 0.00054278, "INCLINATION": 97.4257, "RA_OF_ASC_NODE": 122.6889, "ARG_OF_PERICENTER": 89.4248, "MEAN_ANOMALY": 270.7616, "EPHEMERIS_TYPE": 0, "CLASSIFICATION_TYPE": "U", "NORAD_CAT_ID": 42988, "ELEMENT_SET_NO": 999, "REV_AT_EPOCH": 45457, "BSTAR": 0.00028919085, "MEAN_MOTION_DOT": 8.909e-05, "MEAN_MOTION_DDOT": 0}, "tle": {"line1": "1 42988U 17068B   25351.82390034  .00008909  00000+0  28919-3 0  9995", "line2": "2 42988  97.4257 122.6889 0005427  89.4248 270.7616 15.32169613454577"}}, "geometry": {"type": "Point", "coordinates": [-53.029450967603616, 26.509328217803432]}}, {"type": "Feature", "properties": {"norad_id": 42989, "name": "SKYSAT-C9", "group": "resource", "lat": 78.84123795358408, "lon": 81.32860789523517, "alt_km": 442.99491778124957, "timestamp": "2025-12-18T08:58:43.049192+00:00", "meta": {"OBJECT_NAME": "SKYSAT-C9", "OBJECT_ID": "2017-068C", "EPOCH": "2025-12-17T20:07:06.783744", "MEAN_MOTION": 15.36178547, "ECCENTRICITY": 0.00105739, "INCLINATION": 97.4188, "RA_OF_ASC_NODE": 122.1322, "ARG_OF_PERICENTER": 71.4437, "MEAN_ANOMALY": 288.7954, "EPHEMERIS_TYPE": 0, "CLASSIFICATION_TYPE": "U", "NORAD_CAT_ID": 42989, "ELEMENT_SET_NO": 999, "REV_AT_EPOCH": 45486, "BSTAR": 0.00031593767, "MEAN_MOTION_DOT": 0.00011079, "MEAN_MOTION_DDOT": 0}, "tle": {"line1": "1 42989U 17068C   25351.83827296  .00011079  00000+0  31594-3 0  9997", "line2": "2 42989  97.4188 122.1322 0010573  71.4437 288.7954 15.36178547454863"}}, "geometry": {"type": "Point", "coordinates": [81.32860789523517, 78.84123795358408]}}, {"type": "Feature", "properties": {"norad_id": 42990, "name": "SKYSAT-C8", "group": "resource", "lat": -11.146982427132397, "lon": 123.87163071529818, "alt_km": 470.40055336943533, "timestamp": "2025-12-18T08:58:43.049202+00:00", "meta": {"OBJECT_NAME": "SKYSAT-C8", "OBJECT_ID": "2017-068D", "EPOCH": "2025-12-17T07:57:46.624896", "MEAN_MOTION": 15.33021868, "ECCENTRICITY": 0.00012634, "INCLINATION": 97.4278, "RA_OF_ASC_NODE": 121.3518, "ARG_OF_PERICENTER": 326.0348, "MEAN_ANOMALY": 34.0813, "EPHEMERIS_TYPE": 0, "CLASSIFICATION_TYPE": "U", "NORAD_CAT_ID": 42990, "ELEMENT_SET_NO": 999, "REV_AT_EPOCH": 45441, "BSTAR": 0.00030707047, "MEAN_MOTION_DOT": 9.718e-05, "MEAN_MOTION_DDOT": 0}, "tle": {"line1": "1 42990U 17068D   25351.33178964  .00009718  00000+0  30707-3 0  9997", "line2": "2 42990  97.4278 121.3518 0001263 326.0348  34.0813 15.33021868454416"}}, "geometry": {"type": "Point", "coordinates": [123.87163071529818, -11.146982427132397]}}, {"type": "Feature", "properties": {"norad_id": 42991, "name": "SKYSAT-C7", "group": "resource", "lat": -12.27066105674581, "lon": -58.19127183811166, "alt_km": 477.5350786376639, "timestamp": "2025-12-18T08:58:43.049212+00:00", "meta": {"OBJECT_NAME": "SKYSAT-C7", "OBJECT_ID": "2017-068E", "EPOCH": "2025-12-17T19:36:19.860192", "MEAN_MOTION": 15.32432808, "ECCENTRICITY": 0.00073213, "INCLINATION": 97.4288, "RA_OF_ASC_NODE": 122.8758, "ARG_OF_PERICENTER": 41.4878, "MEAN_ANOMALY": 318.6918, "EPHEMERIS_TYPE": 0, "CLASSIFICATION_TYPE": "U", "NORAD_CAT_ID": 42991, "ELEMENT_SET_NO": 999, "REV_AT_EPOCH": 45455, "BSTAR": 0.00029117844, "MEAN_MOTION_DOT": 9.048e-05, "MEAN_MOTION_DDOT": 0}, "tle": {"line1": "1 42991U 17068E   25351.81689653  .00009048  00000+0  29118-3 0  9993", "line2": "2 42991  97.4288 122.8758 0007321  41.4878 318.6918 15.32432808454558"}}, "geometry": {"type": "Point", "coordinates": [-58.19127183811166, -12.27066105674581]}}, {"type": "Feature", "properties": {"norad_id": 42992, "name": "SKYSAT-C6", "group": "resource", "lat": -66.78789085052563, "lon": 141.5909037688317, "alt_km": 480.7533192926003, "timestamp": "2025-12-18T08:58:43.049222+00:00", "meta": {"OBJECT_NAME": "SKYSAT-C6", "OBJECT_ID": "2017-068F", "EPOCH": "2025-12-17T20:43:51.367008", "MEAN_MOTION": 15.31593252, "ECCENTRICITY": 0.00050839, "INCLINATION": 97.4321, "RA_OF_ASC_NODE": 123.3576, "ARG_OF_PERICENTER": 68.6397, "MEAN_ANOMALY": 291.5387, "EPHEMERIS_TYPE": 0, "CLASSIFICATION_TYPE": "U", "NORAD_CAT_ID": 42992, "ELEMENT_SET_NO": 999, "REV_AT_EPOCH": 45454, "BSTAR": 0.00029529927, "MEAN_MOTION_DOT": 8.935e-05, "MEAN_MOTION_DDOT": 0}, "tle": {"line1": "1 42992U 17068F   25351.86378897  .00008935  00000+0  29530-3 0  9996", "line2": "2 42992  97.4321 123.3576 0005083  68.6397 291.5387 15.31593252454549"}}, "geometry": {"type": "Point", "coordinates": [141.5909037688317, -66.78789085052563]}}, {"type": "Feature", "properties": {"norad_id": 43111, "name": "CARTOSAT-2F", "group": "resource", "lat": 29.033588726129466, "lon": -125.92371522533661, "alt_km": 505.58883409443024, "timestamp": "2025-12-18T08:58:43.049233+00:00", "meta": {"OBJECT_NAME": "CARTOSAT-2F", "OBJECT_ID": "2018-004A", "EPOCH": "2025-12-17T22:50:02.751936", "MEAN_MOTION": 15.19327484, "ECCENTRICITY": 0.00014551, "INCLINATION": 97.432, "RA_OF_ASC_NODE": 49.5052, "ARG_OF_PERICENTER": 139.4075, "MEAN_ANOMALY": 220.7268, "EPHEMERIS_TYPE": 0, "CLASSIFICATION_TYPE": "U", "NORAD_CAT_ID": 43111, "ELEMENT_SET_NO": 999, "REV_AT_EPOCH": 43981, "BSTAR": 0.00020202722, "MEAN_MOTION_DOT": 4.2e-05, "MEAN_MOTION_DDOT": 0}, "tle": {"line1": "1 43111U 18004A   25351.95142074  .00004200  00000+0  20203-3 0  9996", "line2": "2 43111  97.4320  49.5052 0001455 139.4075 220.7268 15.19327484439812"}}, "geometry": {"type": "Point", "coordinates": [-125.92371522533661, 29.033588726129466]}}, {"type": "Feature", "properties": {"norad_id": 43259, "name": "GAOFEN-1 02", "group": "resource", "lat": 50.518735473250416, "lon": -119.90317782492038, "alt_km": 635.4287988396536, "timestamp": "2025-12-18T08:58:43.049243+00:00", "meta": {"OBJECT_NAME": "GAOFEN-1 02", "OBJECT_ID": "2018-031A", "EPOCH": "2025-12-17T22:38:18.079584", "MEAN_MOTION": 14.76427127, "ECCENTRICITY": 0.00020448, "INCLINATION": 98.0807, "RA_OF_ASC_NODE": 49.7348, "ARG_OF_PERICENTER": 196.9575, "MEAN_ANOMALY": 163.1566, "EPHEMERIS_TYPE": 0, "CLASSIFICATION_TYPE": "U", "NORAD_CAT_ID": 43259, "ELEMENT_SET_NO": 999, "REV_AT_EPOCH": 41595, "BSTAR": 0.0001533008, "MEAN_MOTION_DOT": 1.014e-05, "MEAN_MOTION_DDOT": 0}, "tle": {"line1": "1 43259U 18031A   25351.94326481  .00001014  00000+0  15330-3 0  9999", "line2": "2 43259  98.0807  49.7348 0002044 196.9575 163.1566 14.76427127415957"}}, "geometry": {"type": "Point", "coordinates": [-119.90317782492038, 50.518735473250416]}}, {"type": "Feature", "properties": {"norad_id": 43260, "name": "GAOFEN-1 03", "group": "resource", "lat": -63.21938805897383, "lon": -146.3044612332302, "alt_km": 646.9575499855291, "timestamp": "2025-12-18T08:58:43.049253+00:00", "meta": {"OBJECT_NAME": "GAOFEN-1 03", "OBJECT_ID": "2018-031B", "EPOCH": "2025-12-17T23:44:33.406656", "MEAN_MOTION": 14.76447688, "ECCENTRICITY": 0.00017631, "INCLINATION": 98.0792, "RA_OF_ASC_NODE": 49.6568, "ARG_OF_PERICENTER": 295.5101, "MEAN_ANOMALY": 64.5926, "EPHEMERIS_TYPE": 0, "CLASSIFICATION_TYPE": "U", "NORAD_CAT_ID": 43260, "ELEMENT_SET_NO": 999, "REV_AT_EPOCH": 41595, "BSTAR": 0.00011833028, "MEAN_MOTION_DOT": 7.71e-06, "MEAN_MOTION_DDOT": 0}, "tle": {"line1": "1 43260U 18031B   25351.98927554  .00000771  00000+0  11833-3 0  9996", "line2": "2 43260  98.0792  49.6568 0001763 295.5101  64.5926 14.76447688415951"}}, "geometry": {"type": "Point", "coordinates": [-146.3044612332302, -63.21938805897383]}}, {"type": "Feature", "properties": {"norad_id": 43262, "name": "GAOFEN-1 04", "group": "resource", "lat": 13.72391059067221, "lon": 48.22380389662304, "alt_km": 641.1367699282591, "timestamp": "2025-12-18T08:58:43.049263+00:00", "meta": {"OBJECT_NAME": "GAOFEN-1 04", "OBJECT_ID": "2018-031D", "EPOCH": "2025-12-17T23:09:25.460064", "MEAN_MOTION": 14.76460388, "ECCENTRICITY": 8.74e-05, "INCLINATION": 98.0808, "RA_OF_ASC_NODE": 49.8028, "ARG_OF_PERICENTER": 59.3636, "MEAN_ANOMALY": 300.766, "EPHEMERIS_TYPE": 0, "CLASSIFICATION_TYPE": "U", "NORAD_CAT_ID": 43262, "ELEMENT_SET_NO": 999, "REV_AT_EPOCH": 41594, "BSTAR": 9.2110239e-05, "MEAN_MOTION_DOT": 5.89e-06, "MEAN_MOTION_DDOT": 0}, "tle": {"line1": "1 43262U 18031D   25351.96487801  .00000589  00000+0  92110-4 0  9997", "line2": "2 43262  98.0808  49.8028 0000874  59.3636 300.7660 14.76460388415946"}}, "geometry": {"type": "Point", "coordinates": [48.22380389662304, 13.72391059067221]}}]}